[{"OBJECT_NAME":"JY1SAT (JO-97)","OBJECT_ID":"2018-099AX","EPOCH":"2026-03-09T16:28:19.890048","MEAN_MOTION":15.30302629,"ECCENTRICITY":0.00047232,"INCLINATION":97.4249,"RA_OF_ASC_NODE":131.3625,"ARG_OF_PERICENTER":256.6795,"MEAN_ANOMALY":103.3919,"EPHEMERIS_TYPE":0,"CLASSIFICATION_TYPE":"U","NORAD_CAT_ID":43803,"ELEMENT_SET_NO":999,"REV_AT_EPOCH":39839,"BSTAR":0.00060804308,"MEAN_MOTION_DOT":0.00017774,"MEAN_MOTION_DDOT":0},{"OBJECT_NAME":"STARLINK-32786","OBJECT_ID":"2025-004T","EPOCH":"2026-03-09T10:18:34.313184","MEAN_MOTION":15.27605327,"ECCENTRICITY":0.00016438,"INCLINATION":43,"RA_OF_ASC_NODE":220.9248,"ARG_OF_PERICENTER":257.5437,"MEAN_ANOMALY":102.523,"EPHEMERIS_TYPE":0,"CLASSIFICATION_TYPE":"U","NORAD_CAT_ID":62528,"ELEMENT_SET_NO":999,"REV_AT_EPOCH":6547,"BSTAR":0.0017049234,"MEAN_MOTION_DOT":0.0004699,"MEAN_MOTION_DDOT":0}]
